start=new Date('2022-08-13T00:00:00.000Z').valueOf();
sats=[{"OBJECT_NAME":"STARLINK-4346","MEAN_ANOMALY":"305.4539","FILE":"3535519","BSTAR":"-0.03615300000000","TIME_SYSTEM":"UTC","OBJECT_TYPE":"PAYLOAD","ARG_OF_PERICENTER":"72.3386","MEAN_ELEMENT_THEORY":"SGP4","DECAY_DATE":null,"OBJECT_ID":"2022-077AG","APOAPSIS":"454.178","INCLINATION":"97.6553","PERIAPSIS":"451.876","MEAN_MOTION_DDOT":"0.0000000000000","COUNTRY_CODE":"US","REV_AT_EPOCH":"130","RA_OF_ASC_NODE":"44.9972","EPHEMERIS_TYPE":"0","RCS_SIZE":"LARGE","EPOCH":"2022-08-12T22:00:01.999584","NORAD_CAT_ID":"53073","MEAN_MOTION":"15.37662057","CLASSIFICATION_TYPE":"U","SITE":"AFWTR","ECCENTRICITY":"0.00016850","PERIOD":"93.649","CENTER_NAME":"EARTH","SEMIMAJOR_AXIS":"6831.162","MEAN_MOTION_DOT":"-0.01212352","LAUNCH_DATE":"2022-07-11","GP_ID":"210108678","TLE_LINE2":"2 53073  97.6553  44.9972 0001685  72.3386 305.4539 15.37662057  1304","ELEMENT_SET_NO":"999","TLE_LINE1":"1 53073U 22077AG  22224.91668981 -.01212352  00000-0 -36153-1 0  9993","REF_FRAME":"TEME"},{"PERIOD":"93.697","CENTER_NAME":"EARTH","SEMIMAJOR_AXIS":"6833.531","LAUNCH_DATE":"2022-07-11","MEAN_MOTION_DOT":"-0.01212316","GP_ID":"210109334","TLE_LINE2":"2 53074  97.6554  44.9939 0001713  69.2949 290.1815 15.36862545  1301","ELEMENT_SET_NO":"999","TLE_LINE1":"1 53074U 22077AH  22224.91668981 -.01212316  00000-0 -37102-1 0  9999","REF_FRAME":"TEME","COUNTRY_CODE":"US","RA_OF_ASC_NODE":"44.9939","REV_AT_EPOCH":"130","EPOCH":"2022-08-12T22:00:01.999584","RCS_SIZE":"LARGE","EPHEMERIS_TYPE":"0","NORAD_CAT_ID":"53074","MEAN_MOTION":"15.36862545","SITE":"AFWTR","CLASSIFICATION_TYPE":"U","ECCENTRICITY":"0.00017130","DECAY_DATE":null,"OBJECT_ID":"2022-077AH","APOAPSIS":"456.566","INCLINATION":"97.6554","PERIAPSIS":"454.225","MEAN_MOTION_DDOT":"0.0000000000000","OBJECT_NAME":"STARLINK-4310","MEAN_ANOMALY":"290.1815","FILE":"3535519","BSTAR":"-0.03710200000000","TIME_SYSTEM":"UTC","OBJECT_TYPE":"PAYLOAD","MEAN_ELEMENT_THEORY":"SGP4","ARG_OF_PERICENTER":"69.2949"},{"OBJECT_NAME":"STARLINK-4348","MEAN_ANOMALY":"314.7010","FILE":"3535519","TIME_SYSTEM":"UTC","BSTAR":"-0.03591400000000","ARG_OF_PERICENTER":"68.6645","MEAN_ELEMENT_THEORY":"SGP4","OBJECT_TYPE":"PAYLOAD","OBJECT_ID":"2022-077AJ","DECAY_DATE":null,"APOAPSIS":"453.582","INCLINATION":"97.6553","PERIAPSIS":"451.238","MEAN_MOTION_DDOT":"0.0000000000000","REV_AT_EPOCH":"130","RA_OF_ASC_NODE":"44.9957","COUNTRY_CODE":"US","EPOCH":"2022-08-12T22:00:01.999584","RCS_SIZE":"LARGE","EPHEMERIS_TYPE":"0","MEAN_MOTION":"15.37870286","NORAD_CAT_ID":"53075","SITE":"AFWTR","CLASSIFICATION_TYPE":"U","ECCENTRICITY":"0.00017160","PERIOD":"93.636","CENTER_NAME":"EARTH","SEMIMAJOR_AXIS":"6830.545","GP_ID":"210108809","TLE_LINE2":"2 53075  97.6553  44.9957 0001716  68.6645 314.7010 15.37870286  1302","MEAN_MOTION_DOT":"-0.01212525","LAUNCH_DATE":"2022-07-11","TLE_LINE1":"1 53075U 22077AJ  22224.91668981 -.01212525  00000-0 -35914-1 0  9991","ELEMENT_SET_NO":"999","REF_FRAME":"TEME"},{"PERIOD":"93.653","SEMIMAJOR_AXIS":"6831.390","CENTER_NAME":"EARTH","GP_ID":"210109596","TLE_LINE2":"2 53076  97.6553  44.9983 0001711  69.0235 306.4896 15.37585133  1301","LAUNCH_DATE":"2022-07-11","MEAN_MOTION_DOT":"-0.01212494","REF_FRAME":"TEME","TLE_LINE1":"1 53076U 22077AK  22224.91668981 -.01212494  00000-0 -36248-1 0  9998","ELEMENT_SET_NO":"999","REV_AT_EPOCH":"130","RA_OF_ASC_NODE":"44.9983","COUNTRY_CODE":"US","MEAN_MOTION":"15.37585133","NORAD_CAT_ID":"53076","EPOCH":"2022-08-12T22:00:01.999584","RCS_SIZE":"LARGE","EPHEMERIS_TYPE":"0","ECCENTRICITY":"0.00017110","CLASSIFICATION_TYPE":"U","SITE":"AFWTR","APOAPSIS":"454.424","OBJECT_ID":"2022-077AK","DECAY_DATE":null,"INCLINATION":"97.6553","MEAN_MOTION_DDOT":"0.0000000000000","PERIAPSIS":"452.086","MEAN_ANOMALY":"306.4896","OBJECT_NAME":"STARLINK-4347","FILE":"3535519","TIME_SYSTEM":"UTC","BSTAR":"-0.03624800000000","MEAN_ELEMENT_THEORY":"SGP4","ARG_OF_PERICENTER":"69.0235","OBJECT_TYPE":"PAYLOAD"},{"TIME_SYSTEM":"UTC","BSTAR":"-0.03578200000000","MEAN_ELEMENT_THEORY":"SGP4","ARG_OF_PERICENTER":"69.6044","OBJECT_TYPE":"PAYLOAD","OBJECT_NAME":"STARLINK-4315","MEAN_ANOMALY":"317.4490","FILE":"3535519","PERIAPSIS":"450.911","MEAN_MOTION_DDOT":"0.0000000000000","OBJECT_ID":"2022-077AL","DECAY_DATE":null,"APOAPSIS":"453.248","INCLINATION":"97.6553","CLASSIFICATION_TYPE":"U","SITE":"AFWTR","ECCENTRICITY":"0.00017110","REV_AT_EPOCH":"130","RA_OF_ASC_NODE":"44.9950","COUNTRY_CODE":"US","EPOCH":"2022-08-12T22:00:01.999584","RCS_SIZE":"LARGE","EPHEMERIS_TYPE":"0","MEAN_MOTION":"15.37981959","NORAD_CAT_ID":"53077","TLE_LINE2":"2 53077  97.6553  44.9950 0001711  69.6044 317.4490 15.37981959  1308","GP_ID":"210109072","MEAN_MOTION_DOT":"-0.01212477","LAUNCH_DATE":"2022-07-11","TLE_LINE1":"1 53077U 22077AL  22224.91668981 -.01212477  00000-0 -35782-1 0  9992","ELEMENT_SET_NO":"999","REF_FRAME":"TEME","PERIOD":"93.629","CENTER_NAME":"EARTH","SEMIMAJOR_AXIS":"6830.215"},{"SEMIMAJOR_AXIS":"6830.559","CENTER_NAME":"EARTH","PERIOD":"93.636","REF_FRAME":"TEME","TLE_LINE1":"1 53078U 22077AM  22224.91668981 -.01212383  00000-0 -35915-1 0  9997","ELEMENT_SET_NO":"999","TLE_LINE2":"2 53078  97.6553  44.9971 0001690  71.9043 310.5963 15.37865706  1303","GP_ID":"210108941","LAUNCH_DATE":"2022-07-11","MEAN_MOTION_DOT":"-0.01212383","MEAN_MOTION":"15.37865706","NORAD_CAT_ID":"53078","EPHEMERIS_TYPE":"0","RCS_SIZE":"LARGE","EPOCH":"2022-08-12T22:00:01.999584","REV_AT_EPOCH":"130","RA_OF_ASC_NODE":"44.9971","COUNTRY_CODE":"US","ECCENTRICITY":"0.00016900","SITE":"AFWTR","CLASSIFICATION_TYPE":"U","INCLINATION":"97.6553","APOAPSIS":"453.578","OBJECT_ID":"2022-077AM","DECAY_DATE":null,"MEAN_MOTION_DDOT":"0.0000000000000","PERIAPSIS":"451.269","FILE":"3535519","MEAN_ANOMALY":"310.5963","OBJECT_NAME":"STARLINK-4322","MEAN_ELEMENT_THEORY":"SGP4","ARG_OF_PERICENTER":"71.9043","OBJECT_TYPE":"PAYLOAD","TIME_SYSTEM":"UTC","BSTAR":"-0.03591500000000"},{"INCLINATION":"97.6553","OBJECT_ID":"2022-077AN","DECAY_DATE":null,"APOAPSIS":"452.706","PERIAPSIS":"450.392","MEAN_MOTION_DDOT":"0.0000000000000","FILE":"3535519","OBJECT_NAME":"STARLINK-4327","MEAN_ANOMALY":"319.0946","MEAN_ELEMENT_THEORY":"SGP4","ARG_OF_PERICENTER":"72.1186","OBJECT_TYPE":"PAYLOAD","TIME_SYSTEM":"UTC","BSTAR":"-0.03557000000000","CENTER_NAME":"EARTH","SEMIMAJOR_AXIS":"6829.684","PERIOD":"93.618","TLE_LINE1":"1 53079U 22077AN  22224.91668981 -.01212364  00000-0 -35570-1 0  9994","ELEMENT_SET_NO":"999","REF_FRAME":"TEME","TLE_LINE2":"2 53079  97.6553  44.9947 0001694  72.1186 319.0946 15.38161049  1307","GP_ID":"210109204","LAUNCH_DATE":"2022-07-11","MEAN_MOTION_DOT":"-0.01212364","RCS_SIZE":"LARGE","EPOCH":"2022-08-12T22:00:01.999584","EPHEMERIS_TYPE":"0","MEAN_MOTION":"15.38161049","NORAD_CAT_ID":"53079","RA_OF_ASC_NODE":"44.9947","REV_AT_EPOCH":"130","COUNTRY_CODE":"US","SITE":"AFWTR","CLASSIFICATION_TYPE":"U","ECCENTRICITY":"0.00016940"},{"MEAN_MOTION_DDOT":"0.0000000000000","PERIAPSIS":"450.942","APOAPSIS":"453.404","OBJECT_ID":"2022-077AP","DECAY_DATE":null,"INCLINATION":"97.6553","TIME_SYSTEM":"UTC","BSTAR":"-0.03582900000000","MEAN_ELEMENT_THEORY":"SGP4","ARG_OF_PERICENTER":"60.8694","OBJECT_TYPE":"PAYLOAD","MEAN_ANOMALY":"324.8030","OBJECT_NAME":"STARLINK-4330","FILE":"3535519","GP_ID":"210109466","TLE_LINE2":"2 53080  97.6553  44.9964 0001802  60.8694 324.8030 15.37950500  1302","LAUNCH_DATE":"2022-07-11","MEAN_MOTION_DOT":"-0.01212820","REF_FRAME":"TEME","TLE_LINE1":"1 53080U 22077AP  22224.91668981 -.01212820  00000-0 -35829-1 0  9990","ELEMENT_SET_NO":"999","PERIOD":"93.631","SEMIMAJOR_AXIS":"6830.308","CENTER_NAME":"EARTH","ECCENTRICITY":"0.00018020","SITE":"AFWTR","CLASSIFICATION_TYPE":"U","REV_AT_EPOCH":"130","RA_OF_ASC_NODE":"44.9964","COUNTRY_CODE":"US","MEAN_MOTION":"15.37950500","NORAD_CAT_ID":"53080","EPOCH":"2022-08-12T22:00:01.999584","RCS_SIZE":"LARGE","EPHEMERIS_TYPE":"0"},{"OBJECT_NAME":"STARLINK-4326","MEAN_ANOMALY":"329.2013","FILE":"3535519","TIME_SYSTEM":"UTC","BSTAR":"-0.03545000000000","ARG_OF_PERICENTER":"65.6105","MEAN_ELEMENT_THEORY":"SGP4","OBJECT_TYPE":"PAYLOAD","OBJECT_ID":"2022-077AQ","DECAY_DATE":null,"APOAPSIS":"452.424","INCLINATION":"97.6553","PERIAPSIS":"450.027","MEAN_MOTION_DDOT":"0.0000000000000","RA_OF_ASC_NODE":"44.9925","REV_AT_EPOCH":"130","COUNTRY_CODE":"US","EPHEMERIS_TYPE":"0","RCS_SIZE":"LARGE","EPOCH":"2022-08-12T22:00:01.999584","MEAN_MOTION":"15.38270504","NORAD_CAT_ID":"53081","CLASSIFICATION_TYPE":"U","SITE":"AFWTR","ECCENTRICITY":"0.00017550","PERIOD":"93.612","CENTER_NAME":"EARTH","SEMIMAJOR_AXIS":"6829.360","GP_ID":"210108679","TLE_LINE2":"2 53081  97.6553  44.9925 0001755  65.6105 329.2013 15.38270504  1307","MEAN_MOTION_DOT":"-0.01212597","LAUNCH_DATE":"2022-07-11","TLE_LINE1":"1 53081U 22077AQ  22224.91668981 -.01212597  00000-0 -35450-1 0  9992","ELEMENT_SET_NO":"999","REF_FRAME":"TEME"},{"BSTAR":"-0.03545900000000","TIME_SYSTEM":"UTC","OBJECT_TYPE":"PAYLOAD","MEAN_ELEMENT_THEORY":"SGP4","ARG_OF_PERICENTER":"75.4035","OBJECT_NAME":"STARLINK-4321","MEAN_ANOMALY":"318.2984","FILE":"3535519","PERIAPSIS":"450.136","MEAN_MOTION_DDOT":"0.0000000000000","DECAY_DATE":null,"OBJECT_ID":"2022-077AR","APOAPSIS":"452.422","INCLINATION":"97.6553","SITE":"AFWTR","CLASSIFICATION_TYPE":"U","ECCENTRICITY":"0.00016740","COUNTRY_CODE":"US","REV_AT_EPOCH":"130","RA_OF_ASC_NODE":"44.9937","RCS_SIZE":"LARGE","EPOCH":"2022-08-12T22:00:01.999584","EPHEMERIS_TYPE":"0","NORAD_CAT_ID":"53082","MEAN_MOTION":"15.38252471","LAUNCH_DATE":"2022-07-11","MEAN_MOTION_DOT":"-0.01212204","TLE_LINE2":"2 53082  97.6553  44.9937 0001674  75.4035 318.2984 15.38252471  1300","GP_ID":"210109335","ELEMENT_SET_NO":"999","TLE_LINE1":"1 53082U 22077AR  22224.91668981 -.01212204  00000-0 -35459-1 0  9997","REF_FRAME":"TEME","PERIOD":"93.613","CENTER_NAME":"EARTH","SEMIMAJOR_AXIS":"6829.414"}];
